{
    "links": {
        "self": "http://www.neowsapp.com/rest/v1/neo/54051179?api_key=iIulBulltgU6a56xZRHN4H3l9WmuAYTsLGpBGhQ2"
    },
    "id": "54051179",
    "neo_reference_id": "54051179",
    "name": "(2020 QF1)",
    "designation": "2020 QF1",
    "nasa_jpl_url": "http://ssd.jpl.nasa.gov/sbdb.cgi?sstr=54051179",
    "absolute_magnitude_h": 28.579,
    "estimated_diameter": {
        "kilometers": {
            "estimated_diameter_min": 0.0051139323,
            "estimated_diameter_max": 0.0114351003
        },
        "meters": {
            "estimated_diameter_min": 5.1139323261,
            "estimated_diameter_max": 11.4351003135
        },
        "miles": {
            "estimated_diameter_min": 0.0031776492,
            "estimated_diameter_max": 0.0071054397
        },
        "feet": {
            "estimated_diameter_min": 16.7779937328,
            "estimated_diameter_max": 37.5167345127
        }
    },
    "is_potentially_hazardous_asteroid": false,
    "close_approach_data": [
        {
            "close_approach_date": "2020-08-16",
            "close_approach_date_full": "2020-Aug-16 13:05",
            "epoch_date_close_approach": 1597583100000,
            "relative_velocity": {
                "kilometers_per_second": "14.1462601384",
                "kilometers_per_hour": "50926.5364983617",
                "miles_per_hour": "31643.7693036626"
            },
            "miss_distance": {
                "astronomical": "0.0059728712",
                "lunar": "2.3234468968",
                "kilometers": "893528.809304344",
                "miles": "555213.0565301872"
            },
            "orbiting_body": "Moon"
        },
        {
            "close_approach_date": "2020-08-16",
            "close_approach_date_full": "2020-Aug-16 16:24",
            "epoch_date_close_approach": 1597595040000,
            "relative_velocity": {
                "kilometers_per_second": "13.3130246273",
                "kilometers_per_hour": "47926.8886584056",
                "miles_per_hour": "29779.9047888854"
            },
            "miss_distance": {
                "astronomical": "0.0038050155",
                "lunar": "1.4801510295",
                "kilometers": "569222.214116985",
                "miles": "353698.282644993"
            },
            "orbiting_body": "Earth"
        }
    ],
    "orbital_data": {
        "orbit_id": "2",
        "orbit_determination_date": "2020-08-22 06:35:46",
        "first_observation_date": "2020-08-18",
        "last_observation_date": "2020-08-19",
        "data_arc_in_days": 1,
        "observations_used": 25,
        "orbit_uncertainty": "8",
        "minimum_orbit_intersection": ".000313085",
        "jupiter_tisserand_invariant": "3.339",
        "epoch_osculation": "2459080.5",
        "eccentricity": ".6104960166948203",
        "semi_major_axis": "2.267265876486397",
        "inclination": "3.300033024312841",
        "ascending_node_longitude": "323.7991591849895",
        "orbital_period": "1246.958799971829",
        "perihelion_distance": ".883109090103361",
        "perihelion_argument": "311.210293147033",
        "aphelion_distance": "3.651422662869433",
        "perihelion_time": "2459042.588078748725",
        "mean_anomaly": "10.94526270696942",
        "mean_motion": ".288702401401019",
        "equinox": "J2000",
        "orbit_class": {
            "orbit_class_type": "APO",
            "orbit_class_description": "Near-Earth asteroid orbits which cross the Earth’s orbit similar to that of 1862 Apollo",
            "orbit_class_range": "a (semi-major axis) > 1.0 AU; q (perihelion) < 1.017 AU"
        }
    },
    "is_sentry_object": false
}